{
  "type": "FeatureCollection",
  "features": [
    {
      "type": "Feature",
      "properties": {
        "id": "context-israel-early",
        "name": "Northern Kingdom core — early divided monarchy",
        "validFrom": -930,
        "validTo": -880,
        "confidence": "disputed",
        "sourceIds": [
          "source-miller-hayes",
          "source-mazar-land-bible",
          "source-batch5-methodology"
        ],
        "note": "Generalized orientation for the northern highlands and central valleys; not a surveyed border or a claim of uniform control.",
        "family": "israel"
      },
      "geometry": {
        "type": "Polygon",
        "coordinates": [
          [
            [
              35.0,
              31.75
            ],
            [
              35.55,
              31.8
            ],
            [
              35.65,
              32.8
            ],
            [
              35.25,
              33.05
            ],
            [
              34.85,
              32.45
            ],
            [
              35.0,
              31.75
            ]
          ]
        ]
      }
    },
    {
      "type": "Feature",
      "properties": {
        "id": "context-israel-omride",
        "name": "Northern Kingdom / Omride sphere — broad context",
        "validFrom": -880,
        "validTo": -840,
        "confidence": "disputed",
        "sourceIds": [
          "source-miller-hayes",
          "source-northern-kingdom-archaeology",
          "source-kurkh-monolith",
          "source-batch5-methodology"
        ],
        "note": "Broad generalized political sphere used to contextualize Samaria, Jezreel, Transjordan interests, and the Qarqar-era state; not an exact border reconstruction.",
        "family": "israel"
      },
      "geometry": {
        "type": "Polygon",
        "coordinates": [
          [
            [
              34.9,
              31.75
            ],
            [
              35.65,
              31.75
            ],
            [
              36.05,
              32.25
            ],
            [
              35.75,
              33.15
            ],
            [
              35.15,
              33.15
            ],
            [
              34.85,
              32.4
            ],
            [
              34.9,
              31.75
            ]
          ]
        ]
      }
    },
    {
      "type": "Feature",
      "properties": {
        "id": "context-israel-late",
        "name": "Northern Kingdom — eighth-century core",
        "validFrom": -840,
        "validTo": -733,
        "confidence": "probable",
        "sourceIds": [
          "source-miller-hayes",
          "source-northern-kingdom-archaeology",
          "source-assyrian-royal-inscriptions",
          "source-batch5-methodology"
        ],
        "note": "Generalized core of Israel before Tiglath-pileser III’s annexations; frontier control varied and this is not a fixed modern-style boundary.",
        "family": "israel"
      },
      "geometry": {
        "type": "Polygon",
        "coordinates": [
          [
            [
              34.95,
              31.8
            ],
            [
              35.55,
              31.8
            ],
            [
              35.65,
              32.8
            ],
            [
              35.2,
              33.0
            ],
            [
              34.9,
              32.35
            ],
            [
              34.95,
              31.8
            ]
          ]
        ]
      }
    },
    {
      "type": "Feature",
      "properties": {
        "id": "context-israel-rump",
        "name": "Samaria-centered remnant after Assyrian annexations",
        "validFrom": -732,
        "validTo": -722,
        "confidence": "disputed",
        "sourceIds": [
          "source-miller-hayes",
          "source-assyrian-royal-inscriptions",
          "source-cogan-kings",
          "source-batch5-methodology"
        ],
        "note": "Very broad orientation for the reduced kingdom around Samaria after Assyrian annexations; exact provincial/frontier lines are not asserted.",
        "family": "israel"
      },
      "geometry": {
        "type": "Polygon",
        "coordinates": [
          [
            [
              35.0,
              31.95
            ],
            [
              35.45,
              31.95
            ],
            [
              35.5,
              32.55
            ],
            [
              35.15,
              32.7
            ],
            [
              34.95,
              32.3
            ],
            [
              35.0,
              31.95
            ]
          ]
        ]
      }
    },
    {
      "type": "Feature",
      "properties": {
        "id": "context-judah-divided",
        "name": "Kingdom of Judah — Iron Age II orientation",
        "validFrom": -930,
        "validTo": -701,
        "confidence": "probable",
        "sourceIds": [
          "source-miller-hayes",
          "source-mazar-land-bible",
          "source-batch5-methodology"
        ],
        "note": "Generalized hill-country/Shephelah context for Judah. Territorial reach changed through time; this is not a surveyed political boundary.",
        "family": "judah"
      },
      "geometry": {
        "type": "Polygon",
        "coordinates": [
          [
            [
              34.75,
              30.9
            ],
            [
              35.45,
              30.9
            ],
            [
              35.48,
              31.9
            ],
            [
              35.2,
              32.15
            ],
            [
              34.75,
              31.75
            ],
            [
              34.75,
              30.9
            ]
          ]
        ]
      }
    },
    {
      "type": "Feature",
      "properties": {
        "id": "context-aram-damascus-b5",
        "name": "Aram-Damascus sphere — broad context",
        "validFrom": -900,
        "validTo": -732,
        "confidence": "probable",
        "sourceIds": [
          "source-miller-hayes",
          "source-tel-dan-stele",
          "source-batch5-methodology"
        ],
        "note": "Generalized Aramean political sphere around Damascus and southern Syria. It is contextual, not an exact reconstruction of every reign.",
        "family": "aramean"
      },
      "geometry": {
        "type": "Polygon",
        "coordinates": [
          [
            [
              35.6,
              32.5
            ],
            [
              36.8,
              32.5
            ],
            [
              37.2,
              34.2
            ],
            [
              36.2,
              34.8
            ],
            [
              35.3,
              34.0
            ],
            [
              35.6,
              32.5
            ]
          ]
        ]
      }
    },
    {
      "type": "Feature",
      "properties": {
        "id": "context-moab-b5",
        "name": "Moabite kingdom — broad Iron Age context",
        "validFrom": -900,
        "validTo": -700,
        "confidence": "probable",
        "sourceIds": [
          "source-mesha-stele",
          "source-miller-hayes",
          "source-batch5-methodology"
        ],
        "note": "Broad plateau context around Dibon and Kir-Moab; ancient control shifted and the polygon is not a precise border.",
        "family": "transjordan"
      },
      "geometry": {
        "type": "Polygon",
        "coordinates": [
          [
            [
              35.45,
              30.8
            ],
            [
              36.0,
              30.8
            ],
            [
              36.05,
              31.8
            ],
            [
              35.55,
              31.8
            ],
            [
              35.4,
              31.25
            ],
            [
              35.45,
              30.8
            ]
          ]
        ]
      }
    },
    {
      "type": "Feature",
      "properties": {
        "id": "context-phoenicia-b5",
        "name": "Phoenician coastal city-state corridor",
        "validFrom": -950,
        "validTo": -700,
        "confidence": "probable",
        "sourceIds": [
          "source-miller-hayes",
          "source-anchor-yale",
          "source-batch5-methodology"
        ],
        "note": "Generalized coastal corridor centered on Tyre, Sidon, and related Phoenician cities; not one unified national border.",
        "family": "phoenician"
      },
      "geometry": {
        "type": "Polygon",
        "coordinates": [
          [
            [
              34.95,
              32.8
            ],
            [
              35.45,
              32.8
            ],
            [
              35.75,
              34.4
            ],
            [
              35.15,
              34.4
            ],
            [
              34.95,
              32.8
            ]
          ]
        ]
      }
    },
    {
      "type": "Feature",
      "properties": {
        "id": "context-assyria-west-expansion",
        "name": "Assyrian western imperial reach — late 8th century orientation",
        "validFrom": -745,
        "validTo": -722,
        "confidence": "probable",
        "sourceIds": [
          "source-assyrian-royal-inscriptions",
          "source-context-scripture",
          "source-batch5-methodology"
        ],
        "note": "Highly generalized imperial reach from northern Mesopotamia into Syria-Palestine; not a year-exact provincial map.",
        "family": "assyrian"
      },
      "geometry": {
        "type": "Polygon",
        "coordinates": [
          [
            [
              34.8,
              31.7
            ],
            [
              36.0,
              30.5
            ],
            [
              41.0,
              32.0
            ],
            [
              45.0,
              35.0
            ],
            [
              44.5,
              38.0
            ],
            [
              39.0,
              38.0
            ],
            [
              35.0,
              35.0
            ],
            [
              34.8,
              31.7
            ]
          ]
        ]
      }
    },
    {
      "type": "Feature",
      "properties": {
        "id": "context-assyria-after-samaria",
        "name": "Assyrian imperial context after Samaria",
        "validFrom": -721,
        "validTo": -701,
        "confidence": "probable",
        "sourceIds": [
          "source-assyrian-royal-inscriptions",
          "source-sargon-samaria",
          "source-sennacherib-701",
          "source-batch5-methodology"
        ],
        "note": "Broad imperial orientation showing Assyrian dominance through the Levant before and during Sennacherib’s 701 campaign; not an exact provincial border set.",
        "family": "assyrian"
      },
      "geometry": {
        "type": "Polygon",
        "coordinates": [
          [
            [
              34.5,
              30.5
            ],
            [
              36.5,
              29.5
            ],
            [
              42.0,
              31.5
            ],
            [
              45.5,
              35.0
            ],
            [
              44.5,
              38.0
            ],
            [
              38.5,
              38.5
            ],
            [
              34.8,
              35.0
            ],
            [
              34.5,
              30.5
            ]
          ]
        ]
      }
    }
  ]
}
