{"type":"FeatureCollection","features":[{"type":"Feature","properties":{"id":"natural-earth-land-b8","name":"Generalized physical land silhouette","source":"Natural Earth low-resolution derivative","note":"Country attributes/borders dissolved; physical orientation only."},"geometry":{"type":"MultiPolygon","coordinates":[[[[-9.20484696881074,5.0],[-10.0,5.649164071844514],[-10.0,29.498277120496724],[-9.564811163765683,29.93357371674989],[-9.814718390329176,31.17773550060906],[-9.434793260119363,32.038096421836485],[-9.300692918321886,32.564679266890664],[-8.657476365585012,33.240245266242425],[-7.6541784326382185,33.69706492770251],[-6.912544114601417,34.110476386037476],[-6.2443420068514115,35.145865383437524],[-5.92999426921989,35.75998810479399],[-5.193863491222032,35.75518219659085],[-4.591006232105144,35.330711981745594],[-3.640056525070065,35.399855048152006],[-2.604305792644084,35.179093329401155],[-2.169913702798624,35.16839630791668],[-1.208602871089056,35.7148487411871],[-0.12745439289460592,35.888662421200806],[0.5038765804152092,36.30127289483528],[1.466918572606545,36.605647081034405],[3.1616988460508253,36.78390493422522],[4.81575809084913,36.86503693292346],[5.3201200700177935,36.71651886651662],[6.261819695672613,37.11065501560674],[7.330384962603971,37.11838064223437],[7.737078484741005,36.885707505840216],[8.420964389691676,36.94642731378316],[9.509993523810607,37.349994411766545],[10.210002475636317,37.230001735984814],[10.180650262094531,36.724037787415085],[11.02886722173335,37.09210317641396],[11.100025668999251,36.899996039368915],[10.600004510143094,36.410000108377375],[10.593286573945138,35.94744436293281],[10.939518670300687,35.698984076473494],[10.807847120821009,34.83350718844919],[10.149592726287125,34.33077301689771],[10.339658644256616,33.78574168551532],[10.856836378633687,33.76874013929128],[11.108500603895122,33.293342800422195],[11.488787469131012,33.13699575452324],[12.663310000000024,32.79278000000005],[13.083260000000053,32.878820000000076],[13.918679999999995,32.71196000000009],[15.245630000000006,32.26508000000007],[15.713939999999923,31.376259999999945],[16.611620000000016,31.18217999999996],[18.02108999999996,30.76356999999996],[19.08641,30.26639],[19.574040000000082,30.52582000000001],[20.053349999999966,30.985760000000028],[19.82033000000007,31.751790000000142],[20.13396999999992,32.238200000000006],[20.854520000000093,32.70679999999999],[21.54298,32.843200000000024],[22.895760000000053,32.63857999999999],[23.236800000000017,32.191490000000044],[23.609130000000107,32.18725999999998],[23.92750000000001,32.01667000000009],[24.921139999999923,31.89936],[25.16482,31.56915],[26.49533,31.58568],[28.913529999999998,30.87005],[29.683419999999998,31.186860000000003],[30.09503,31.4734],[30.976930000000003,31.55586],[31.687960000000004,31.4296],[31.96041,30.933600000000002],[32.19247,31.26034],[32.99392,31.024070000000002],[33.7734,30.967460000000003],[34.26543474464621,31.21935730952032],[34.55637169773891,31.548823960896996],[34.48810713068136,31.60553884533732],[34.75258711115117,32.07292633720117],[34.95541710789678,32.82737641044638],[35.126052687324545,33.09090037691878],[35.48220665868013,33.90545014091944],[35.99840254084364,34.644914048800004],[35.905023227692226,35.410009467097325],[36.149762811026534,35.82153473565367],[35.782084995269855,36.27499542901485],[36.160821567537,36.65060557712833],[35.55093631362831,36.565442816711325],[34.714553256984345,36.7955321314909],[34.026894972476384,36.219960028624016],[32.509158156064075,36.107563788389186],[31.699595167779567,36.64427521417258],[30.621624790171097,36.6778648951623],[30.391096225717064,36.26298065850699],[29.69997562024554,36.144357408180994],[28.732902866335422,36.67683136651647],[27.641186557737317,36.65882212986274],[27.048767937943264,37.653360907536],[26.318218214633045,38.208133246405396],[26.804700148228733,38.985760199533516],[26.17078535330433,39.463612168936464],[27.28001997244939,40.42001373957831],[28.81997765474722,40.46001129817221],[29.240003696415584,41.21999074967267],[31.14593387220444,41.08762156835702],[32.34797936374571,41.736264146484615],[33.51328291192746,42.01896006933731],[35.167703891751785,42.040224921225416],[36.9131270688421,41.33535838476427],[38.34766482926452,40.94858612727573],[39.512606642420195,41.10276276301855],[40.373432651538224,41.01367259374735],[41.55408410011066,41.53565623632757],[41.70317060727271,41.96294281673292],[41.45347008643839,42.64512339941794],[40.87546919125379,43.013628038091284],[40.32139448422032,43.128633938156845],[39.955008579270924,43.43499766699922],[38.68000000000001,44.280000000000086],[37.539120000000025,44.65721000000002],[36.6754600000001,45.244690000000105],[37.4031700000001,45.40451000000013],[38.23295000000002,46.24087000000003],[37.67372,46.636570000000006],[39.14767000000012,47.044750000000136],[39.121200000000044,47.26336000000009],[37.4251371599899,47.02222056740419],[36.75985477066445,46.69870026304102],[35.82368452326489,46.64596446388714],[34.96234174982385,46.27319651954974],[35.02078779474607,45.65121898048466],[35.51000857925311,45.40999339454612],[36.52999799983019,45.46998973243717],[36.334712762199274,45.11321564389402],[35.239999220528205,44.93999624285175],[33.882511020652885,44.361478583344194],[33.32642093276013,44.564877020844904],[33.546924269349404,45.03477081967486],[32.4541744321055,45.327466132176085],[32.63080447767919,45.51918569597899],[33.58816206231842,45.85156850848023],[33.29856733575474,46.08059845639781],[31.744140252415207,46.33334788673733],[31.67530724460255,46.70624502215554],[30.74874881360921,46.583100084004116],[30.377608676888883,46.03241018328572],[29.603289015427436,45.293308010431126],[29.62654340995877,45.0353909368624],[29.141611769331835,44.820210272799045],[28.8378577003202,44.913873806328056],[28.558081495891997,43.70746165625813],[28.03909508638472,43.293171698574184],[27.67389773937805,42.57789236100622],[27.99672041190539,42.00735871028779],[28.115524529744416,41.62288605403624],[28.988442824018733,41.29993419042819],[28.806438429486743,41.05496206314856],[27.61901736828409,40.99982330989314],[26.35800906749779,40.151993923496505],[26.04335127127257,40.61775360774317],[26.05694217296534,40.82412344010076],[25.44767703624416,40.85254547786144],[24.92584842296094,40.947061672523205],[23.71481123220076,40.687129218095095],[24.40799889496401,40.12499298762407],[23.899967889102584,39.96200552017552],[23.342999301860743,39.96099782974579],[22.813987664488934,40.476005153966526],[22.626298862404724,40.25656118423916],[22.84974775563478,39.659310818025745],[23.35002729665257,39.190011298167235],[22.973099399515547,38.97090322524963],[23.530016310324925,38.51000112563844],[24.025024855248887,38.21999298761642],[24.040011020613576,37.655014553369426],[23.115002882589124,37.920011298162194],[23.409971958111043,37.40999074965737],[22.77497195810861,37.30501007745653],[23.15422529469862,36.422505804992056],[22.490028110451078,36.4100001083774],[21.67002648284364,36.8449864771942],[21.29501061370155,37.64498932550464],[21.120034213961333,38.31032339126273],[20.217712029712857,39.34023468683961],[20.15001590341052,39.62499766698397],[19.980000441170148,39.69499339452341],[19.960001661873207,39.91500580500605],[19.406081984136733,40.250773423822466],[19.319058872157143,40.72723012955356],[19.40354983895429,41.40956574153546],[19.540027296637106,41.71998607031276],[19.37176816334725,41.877550679783496],[19.162459999999953,41.95502000000005],[18.88214000000005,42.281510000000026],[17.509970330483327,42.849994615239154],[16.930005730871642,43.20999848080038],[16.015384555737683,43.50721548112722],[15.174453973052096,44.243191229827914],[15.376250441151797,44.31791535092208],[14.92030927904051,44.73848399512946],[14.901602410550879,45.07606028907611],[14.258747592839995,45.23377676043094],[13.952254672917036,44.80212352149687],[13.656975538801191,45.13693512631596],[13.67940311041582,45.48414907488501],[13.937630242578308,45.59101593686462],[13.141606479554296,45.73669179949542],[12.32858117030625,45.381778062514826],[12.383874952858548,44.885374253919096],[12.261453484759102,44.600482082693986],[12.589237094786455,44.09136587175446],[13.526905958722494,43.587727362637864],[14.029820997787029,42.761007798832466],[15.142569614327925,41.95513967545685],[15.926191033601896,41.961315009115715],[16.169897088290384,41.74029490820339],[15.889345737377797,41.541082261718216],[17.51916873543118,40.87714345963222],[18.37668745288252,40.35562490494263],[18.48024702319543,40.16886627863981],[18.293385044028042,39.810774441073264],[17.738380161213314,40.277671006830346],[16.869595981522338,40.44223460546381],[16.448743116937322,39.79540070246644],[17.17148969897147,39.42469981542068],[17.052840610429314,38.90287120213735],[16.635088331781816,38.843572496082416],[16.100960727613,37.9858987493342],[15.684086948314473,37.908849188787016],[15.687962680736348,38.21459280044188],[15.89198123542468,38.75094249119924],[16.109332309644287,38.9645470240777],[15.413612501698793,40.048356838535156],[14.99849572109818,40.17294871679087],[14.703268263414714,40.604550279292596],[14.060671827865264,40.7863479680954],[13.627985060285397,41.1882872584616],[12.888081902730365,41.253089504555604],[12.106682570044939,41.70453481705741],[11.191906365614216,42.3554253199897],[10.51194786951774,42.93146251074721],[10.200028924203991,43.9200068222746],[9.702488234097842,44.03627879493132],[8.88894616052687,44.36633616797951],[8.428560825238577,44.23122813575242],[7.8507666357831445,43.76714793555524],[7.435184767291872,43.69384491634922],[6.52924523278304,43.128892320318315],[4.556962517931424,43.399650987311595],[3.1004105973526634,43.075200507167054],[2.9859989762584576,42.47301504166986],[3.0394840836805486,41.892120266276905],[2.0918416683121848,41.226088568683096],[0.8105245296351882,41.01473196060934],[0.7213310074994013,40.678318386389236],[0.10669152181986874,40.12393362076202],[-0.27871131021294104,39.30997813573272],[0.11129072429383768,38.73851430923304],[-0.4671235823491031,38.29236583104115],[-0.6833894514905978,37.642353827457825],[-1.4383821272748492,37.44306366632422],[-2.146452602538119,36.67414419203729],[-4.368900926114719,36.677839056946155],[-4.995219285492212,36.32470815687964],[-5.3771597965614575,35.946850083961465],[-5.866432257500904,36.02981659600606],[-6.236693894872175,36.367677110330334],[-6.520190802425404,36.94291331638732],[-7.453725551778092,37.09778758396607],[-7.855613165711986,36.83826854099627],[-8.382816127953689,36.97888011326246],[-8.898856980820327,36.86880931248078],[-8.746101446965554,37.65134552667661],[-8.83999752443988,38.266243394517616],[-9.287463751655224,38.3584858261586],[-9.526570603869715,38.73742910415491],[-9.446988898140233,39.39206614842837],[-9.048305223008427,39.75509308527877],[-8.977353481471681,40.15930613866581],[-8.768684047877102,40.76063894303019],[-8.79085323733031,41.18433401139126],[-8.99078935386757,41.54345937760364],[-9.034817674180246,41.880570583659676],[-8.984433152695672,42.59277517350627],[-9.392883673530648,43.0266246608127],[-7.97818966310831,43.74833771420099],[-6.754491746436756,43.567909450853925],[-5.411886359061597,43.57423981380968],[-4.3478427799557835,43.40344920508504],[-3.5175317041060907,43.4559007838613],[-1.901351284177764,43.42280202897834],[-1.384225226232985,44.022610378590116],[-1.1937975732374184,46.01491771095486],[-2.2257242496738456,47.06436269793822],[-2.9632761295596026,47.57032664650795],[-4.4915549381594815,47.954954332056374],[-4.592349819344776,48.68416046812699],[-3.295813971357802,48.90169240985963],[-1.6165107893849608,48.64442129169454],[-1.933494025063311,49.776341864615745],[-0.98946895995536,49.34737580016091],[1.3387610205226963,50.12717316344526],[1.6390010921384996,50.9466063502975],[3.3150114849641596,51.34577662473805],[3.8302885270431375,51.62054454203195],[4.056145192388886,52.0],[65.0,52.0],[65.0,25.284981795124853],[62.90570071803461,25.21840932871021],[61.49736290878419,25.0782370061185],[58.525761346272304,25.60996165618573],[57.39725141788239,25.73990204518364],[56.970765822177555,26.966106268821363],[56.492138706290206,27.143304755150197],[55.723710158110066,26.964633490501043],[54.71508955263727,26.480657863871514],[53.49309695823135,26.81236888275305],[52.48359785340961,27.580849107365495],[51.52076256694742,27.865689602158298],[50.85294803243954,28.814520575469388],[50.115008579311585,30.147772528599717],[49.576850213423995,29.985715236932407],[48.94133344909855,30.317090359004037],[48.567971225789755,29.926778265903522],[47.974519077349896,29.975819200148504],[48.18318851094449,29.534476630159762],[48.09394331237642,29.306299343375002],[48.80759484232718,27.689627997339883],[49.29955447774583,27.46121816660981],[49.47091352722566,27.109999294538085],[50.15242231629088,26.689663194275997],[50.212935418504685,26.277026882425375],[50.11330325704594,25.94397227630425],[50.239858839728754,25.608049628190926],[50.527386509000735,25.327808335872103],[50.81010827006958,24.754742539971378],[50.74391076030369,25.482424221289396],[51.013351678273494,26.006991685484195],[51.28646162293606,26.11458201751587],[51.58907881043726,25.80111277923338],[51.60670047384881,25.21567047779874],[51.38960778179063,24.62738597258806],[51.57951867046327,24.245497137951105],[51.757440626844186,24.29407298430547],[51.79438927593287,24.019826158132506],[52.57708051942561,24.177439276622707],[54.00800092958758,24.121757920828216],[55.43902469261414,25.43914520924494],[56.36201744977927,26.39593435312898],[56.48567915225374,26.309117946878633],[56.39142133975335,25.895990708921246],[56.261041701080956,25.71460643157677],[56.396847365144005,24.924732163995486],[56.845140415276006,24.241673081961505],[57.4034525897574,23.878594468678813],[58.13694786970825,23.74793060962881],[58.72921146020542,23.56566783293536],[59.45009769067703,22.6602709009656],[59.80806033716286,22.533611965418217],[59.806148309168066,22.310524807214193],[59.28240766788991,21.43388580981485],[58.86114139184656,21.114034532144302],[58.48798587426694,20.428985907467094],[58.034318475176605,20.481437486243337],[57.826372511634105,20.24300242764863],[57.665762160070955,19.73600495043307],[57.788700392493325,19.067570298737678],[57.694390903560645,18.94470958096376],[57.234263950433814,18.947991034414287],[56.60965091332193,18.574267076079465],[56.51218916201947,18.087113348863966],[56.28352094912793,17.876066799383963],[55.66149173363064,17.884128322821496],[55.26993940615512,17.632309068263197],[55.27490034365513,17.22835439703762],[54.79100223167404,16.95069692633338],[54.23925296409371,17.044980577049913],[53.570508253804576,16.707662665264706],[53.10857262554751,16.651051133688952],[52.38520592632588,16.382411200419654],[52.19172936382509,15.93843313238402],[52.1681649107,15.597420355689948],[51.172515089732485,15.175249742081492],[49.57457645040315,14.708766587782748],[48.67923058451416,14.00320241948566],[48.23894738138742,13.948089504446372],[47.938914015500785,14.007233181204427],[47.354453566279716,13.592219753468383],[46.717076450391744,13.39969920496502],[45.62505008319988,13.290946153206763],[45.406458774605255,13.026905422411433],[45.14435591002086,12.95393830001531],[44.989533318874415,12.69958690027471],[44.49457645038285,12.721652736863348],[44.17511274595449,12.585950425664876],[43.48295861183713,12.636800035040084],[43.22287112811213,13.220950425667425],[43.25144819516953,13.767583726450852],[43.08794396339806,14.06263031662131],[42.892245314308724,14.802249253798749],[42.60487267433362,15.213335272680595],[42.80501549660005,15.261962795467255],[42.70243777850066,15.718885809791999],[42.823670688657415,15.911742255105267],[42.77933230975097,16.347891343648683],[42.649572788266084,16.774635321514964],[42.34798912941071,17.075805568912003],[42.270887892431226,17.474721787989125],[41.75438195167396,17.833046169500975],[41.22139122901558,18.67159963630121],[40.93934126156654,19.486485297111756],[40.247652215339826,20.17463450772649],[39.80168460466095,20.338862209550058],[39.139399448408284,21.291904812092934],[39.023695916506796,21.986875311770195],[39.06632897314759,22.57965566659027],[38.49277225114008,23.688451036060854],[38.02386030452362,24.078685614512935],[37.483634881344386,24.285494696545015],[37.154817742671185,24.85848297779731],[37.209491408036,25.084541530858107],[36.93162723160259,25.60295949961018],[36.639603712721225,25.826227525327223],[36.249136590323815,26.57013560638488],[35.13018680190788,28.06335195567472],[34.63233605320798,28.058546047471566],[34.95603722508426,29.356554673778845],[34.92260257339143,29.501326198844524],[34.823243288783814,29.76108076171822],[34.9226,29.50133],[34.64174,29.099420000000002],[34.42655,28.343989999999998],[34.15451,27.8233],[33.92136,27.6487],[33.13676,28.417650000000002],[32.423230000000004,29.851080000000003],[32.32046,29.76043],[32.73482,28.70523],[33.34876,27.69989],[34.10455,26.14227],[34.79507,25.03375],[35.69241,23.92671],[35.49372,23.752370000000003],[35.52598,23.10244],[36.690690000000004,22.20485],[36.86622999999997,22.0],[37.1887200000001,21.018850000000043],[36.969409999999925,20.83744000000013],[37.11470000000014,19.807960000000094],[37.4817900000001,18.61409000000009],[38.410089959473225,17.998307399970315],[38.990622999840014,16.840626125551694],[39.26611006038803,15.92272349696725],[39.814293654140215,15.435647284400318],[41.17927493669765,14.491079616753211],[42.58957645037526,13.000421250861905],[43.08122602720016,12.699638576707116],[43.31785241066467,12.390148423711025],[43.286381463398925,11.974928290245884],[42.715873650896526,11.735640570518342],[43.470659620951665,11.277709865763882],[43.66666832863484,10.86416921634816],[44.11780358254282,10.445538438351605],[44.614259067570856,10.442205308468942],[45.55694054543915,10.698029486529776],[46.645401238803004,10.816549383991173],[47.525657586462785,11.12722809492999],[48.02159630716778,11.193063869669743],[48.37878380716927,11.375481675660126],[49.26776,11.43033],[50.25878000000001,11.67957],[50.73202,12.021900000000002],[51.1112,12.024640000000002],[51.13387,11.74815],[51.04153,11.16651],[51.04531,10.6409],[50.834179999999996,10.279720000000001],[50.55239,9.19874],[49.45270000000001,6.80466],[48.594550000000005,5.339110000000001],[48.33598434139197,5.0],[5.311848942561738,5.0],[5.033574252959369,5.611802476418234],[4.325607130560684,6.2706511499234665],[2.6917016943562544,6.258817246928629],[1.8652405127123188,6.142157701029731],[1.0601216976049272,5.928837388528876],[-0.5076379052659377,5.3434726017426755],[-1.0653262412966564,5.0],[-3.3671280629434968,5.0],[-4.008819545904942,5.179813340674315],[-4.649917364917911,5.168263658057086],[-5.791749168838153,5.0],[-9.20484696881074,5.0]],[[49.569202101444795,40.176100979160665],[49.395259230350376,39.39948171646225],[49.22322838725071,39.04921885838793],[48.85653242370759,38.81548635513178],[48.88324913920249,38.32024526626262],[49.19961225769334,37.582874253889884],[50.14777143738462,37.37456655532134],[50.84235436381971,36.8728142359834],[52.264024692601424,36.7004216578577],[53.82578982932642,36.965030829408235],[53.92159793479556,37.19891836196126],[53.73551110211252,37.90613617609169],[53.880928582581845,38.95209300389536],[53.1010278664329,39.29057363540713],[53.35780805849123,39.97528636327445],[52.69397260926982,40.03362905533197],[52.915251092343624,40.87652334244473],[53.858139275941134,40.63103445084218],[54.73684533063215,40.95101491959346],[54.008310988181314,41.55121084244742],[53.72171349469059,42.12319143327003],[52.916749708880076,41.86811656347733],[52.81468875510362,41.13537059179471],[52.50245975119615,41.78331553808637],[52.44633914572722,42.027150783855575],[52.692112257707265,42.44389537207337],[52.50142622255032,42.7922978785852],[51.342427199108215,43.132974758469345],[50.89129194520024,44.03103363705378],[50.339129266161365,44.284015611338475],[50.30564293803627,44.609835516938915],[51.278503452363225,44.51485423438646],[51.31689904155604,45.2459982366679],[52.16738976421573,45.40839142514511],[53.0408764992452,45.25904653582177],[53.220865512917726,46.234645901059935],[53.042736850807785,46.85300608986449],[52.04202273947561,46.80463694923924],[51.191945428274266,47.048704738953916],[50.03408328634248,46.60898997658222],[49.10116000000011,46.399330000000134],[48.64541000000008,45.806290000000104],[47.67590999999999,45.64149000000015],[46.68201000000005,44.6092000000001],[47.59093999999999,43.660160000000076],[47.49252000000007,42.98658000000012],[49.110263706260696,41.28228668880051],[49.6189148293096,40.57292430272996],[50.08482954285313,40.52615713150581],[50.39282107931268,40.25656118423912],[49.569202101444795,40.176100979160665]]],[[[-8.56161658368356,51.669301255899356],[-9.977085740590269,51.82045482035308],[-9.837668544279264,52.0],[-7.56934680179143,52.0],[-8.56161658368356,51.669301255899356]]],[[[13.741156447004613,38.03496552179533],[15.520376010813806,38.23115509699143],[15.160242954171736,37.44404551853776],[15.309897902089006,37.13421946873183],[15.099988234119422,36.6199872909954],[14.335228712631988,36.996630967754726],[13.826732618879959,37.10453135838016],[12.431003859108756,37.61294993748375],[12.570943637755136,38.12638113051966],[13.741156447004613,38.03496552179533]]],[[[8.709990675500109,40.899984442705225],[9.210011834356266,41.209991360024176],[9.80997521326492,40.50000885676613],[9.669518670295616,39.17737641047178],[9.214817742559433,39.24047333430015],[8.806935662479674,38.906617743478506],[8.428302443077115,39.17184703221655],[8.388253208050912,40.37831085871876],[8.159998406617689,40.95000722916376],[8.709990675500109,40.899984442705225]]],[[[9.229752231491773,41.380006822264455],[8.775723097375362,41.58361196549443],[8.544212680707773,42.25651662858306],[8.746009148807559,42.62812185319392],[9.390000848028876,43.00998484961471],[9.560016310269134,42.15249197037952],[9.229752231491773,41.380006822264455]]],[[[1.0505615576309424,51.806760565795685],[1.4498653499502439,51.28942780212191],[0.5503336930455021,50.765738837275876],[-0.7875174625586965,50.77498891865622],[-2.4899975244144343,50.50001862243124],[-2.956273972984093,50.696879991247044],[-3.617448085942385,50.22835561787275],[-4.542507900399244,50.341837063185665],[-5.245023159191135,49.95999990498109],[-5.776566941745273,50.15967763935686],[-4.309989793301895,51.21000112568919],[-3.414850633142123,51.42600861266925],[-4.9843672347109305,51.593466091511004],[-5.238304149123571,52.0],[1.38626590909555,52.0],[1.0505615576309424,51.806760565795685]]],[[[32.80247358575275,35.14550364841138],[32.946960890440806,35.3867033961337],[33.667227003724946,35.37321584730552],[34.576473829900465,35.67159556735879],[33.900804477684204,35.245755927057616],[34.00488081232004,34.97809784600186],[32.97982710137845,34.57186941175544],[32.49029625827754,34.701654771456475],[32.25666710788596,35.10323232679663],[32.80247358575275,35.14550364841138]]],[[[25.745023227651586,35.1799976669662],[26.290002882601698,35.29999034274793],[26.16499759288766,35.00499542900977],[24.724982130642303,34.91998769788964],[24.735007358506916,35.08499054619759],[23.51497846852808,35.27999156345098],[23.699980096133004,35.70500438083549],[24.246665073348705,35.368022365860185],[25.02501549652891,35.42499563246197],[25.769207797964185,35.35401805270908],[25.745023227651586,35.1799976669662]]]]}}]}
